[{"OBJECT_NAME":"STARLINK-35307","OBJECT_ID":"2025-232J","EPOCH":"2026-01-19T21:24:09.439488","MEAN_MOTION":15.3021576,"ECCENTRICITY":0.00015319,"INCLINATION":53.1597,"RA_OF_ASC_NODE":330.6261,"ARG_OF_PERICENTER":85.5636,"MEAN_ANOMALY":274.554,"EPHEMERIS_TYPE":0,"CLASSIFICATION_TYPE":"U","NORAD_CAT_ID":66013,"ELEMENT_SET_NO":999,"REV_AT_EPOCH":1596,"BSTAR":0.00094786959,"MEAN_MOTION_DOT":0.00027833,"MEAN_MOTION_DDOT":0},{"OBJECT_NAME":"STARLINK-35395","OBJECT_ID":"2025-232K","EPOCH":"2026-01-19T21:04:24.148128","MEAN_MOTION":15.30229383,"ECCENTRICITY":0.00012578,"INCLINATION":53.1585,"RA_OF_ASC_NODE":330.5429,"ARG_OF_PERICENTER":93.0074,"MEAN_ANOMALY":267.1071,"EPHEMERIS_TYPE":0,"CLASSIFICATION_TYPE":"U","NORAD_CAT_ID":66014,"ELEMENT_SET_NO":999,"REV_AT_EPOCH":1596,"BSTAR":0.0013287623,"MEAN_MOTION_DOT":0.00039239,"MEAN_MOTION_DDOT":0},{"OBJECT_NAME":"STARLINK-34622","OBJECT_ID":"2025-232L","EPOCH":"2026-01-19T20:08:20.254848","MEAN_MOTION":15.3021518,"ECCENTRICITY":0.00013824,"INCLINATION":53.1606,"RA_OF_ASC_NODE":331.0047,"ARG_OF_PERICENTER":83.3485,"MEAN_ANOMALY":276.7673,"EPHEMERIS_TYPE":0,"CLASSIFICATION_TYPE":"U","NORAD_CAT_ID":66015,"ELEMENT_SET_NO":999,"REV_AT_EPOCH":1594,"BSTAR":0.00091626061,"MEAN_MOTION_DOT":0.00026889,"MEAN_MOTION_DDOT":0},{"OBJECT_NAME":"STARLINK-35243","OBJECT_ID":"2025-232M","EPOCH":"2026-01-19T14:01:15.163392","MEAN_MOTION":15.30229427,"ECCENTRICITY":0.00015106,"INCLINATION":53.1616,"RA_OF_ASC_NODE":332.2566,"ARG_OF_PERICENTER":85.9501,"MEAN_ANOMALY":274.1673,"EPHEMERIS_TYPE":0,"CLASSIFICATION_TYPE":"U","NORAD_CAT_ID":66016,"ELEMENT_SET_NO":999,"REV_AT_EPOCH":1591,"BSTAR":0.0010222022,"MEAN_MOTION_DOT":0.00030066,"MEAN_MOTION_DDOT":0},{"OBJECT_NAME":"STARLINK-35398","OBJECT_ID":"2025-232N","EPOCH":"2026-01-19T21:28:43.205664","MEAN_MOTION":15.30213253,"ECCENTRICITY":0.00015592,"INCLINATION":53.1601,"RA_OF_ASC_NODE":330.6465,"ARG_OF_PERICENTER":88.2089,"MEAN_ANOMALY":271.909,"EPHEMERIS_TYPE":0,"CLASSIFICATION_TYPE":"U","NORAD_CAT_ID":66017,"ELEMENT_SET_NO":999,"REV_AT_EPOCH":1596,"BSTAR":0.00081211849,"MEAN_MOTION_DOT":0.0002378,"MEAN_MOTION_DDOT":0},{"OBJECT_NAME":"STARLINK-35376","OBJECT_ID":"2025-232P","EPOCH":"2026-01-19T14:04:17.216832","MEAN_MOTION":15.30206406,"ECCENTRICITY":0.00015353,"INCLINATION":53.1615,"RA_OF_ASC_NODE":332.2722,"ARG_OF_PERICENTER":90.7513,"MEAN_ANOMALY":269.3664,"EPHEMERIS_TYPE":0,"CLASSIFICATION_TYPE":"U","NORAD_CAT_ID":66018,"ELEMENT_SET_NO":999,"REV_AT_EPOCH":1591,"BSTAR":0.00069223986,"MEAN_MOTION_DOT":0.00020203,"MEAN_MOTION_DDOT":0},{"OBJECT_NAME":"STARLINK-35382","OBJECT_ID":"2025-232Q","EPOCH":"2026-01-19T13:46:03.327168","MEAN_MOTION":15.30206179,"ECCENTRICITY":0.00021986,"INCLINATION":53.1601,"RA_OF_ASC_NODE":332.1933,"ARG_OF_PERICENTER":77.138,"MEAN_ANOMALY":282.9866,"EPHEMERIS_TYPE":0,"CLASSIFICATION_TYPE":"U","NORAD_CAT_ID":66019,"ELEMENT_SET_NO":999,"REV_AT_EPOCH":1591,"BSTAR":0.00085000135,"MEAN_MOTION_DOT":0.00024905,"MEAN_MOTION_DDOT":0},{"OBJECT_NAME":"STARLINK-35430","OBJECT_ID":"2025-232R","EPOCH":"2026-01-19T21:08:57.369984","MEAN_MOTION":15.30224818,"ECCENTRICITY":0.00015209,"INCLINATION":53.1587,"RA_OF_ASC_NODE":330.5609,"ARG_OF_PERICENTER":106.4413,"MEAN_ANOMALY":253.6755,"EPHEMERIS_TYPE":0,"CLASSIFICATION_TYPE":"U","NORAD_CAT_ID":66020,"ELEMENT_SET_NO":999,"REV_AT_EPOCH":1594,"BSTAR":0.0010239846,"MEAN_MOTION_DOT":0.00030115,"MEAN_MOTION_DDOT":0},{"OBJECT_NAME":"STARLINK-35432","OBJECT_ID":"2025-232S","EPOCH":"2026-01-19T19:44:01.261248","MEAN_MOTION":15.30188344,"ECCENTRICITY":0.00015104,"INCLINATION":53.1588,"RA_OF_ASC_NODE":330.9034,"ARG_OF_PERICENTER":79.4709,"MEAN_ANOMALY":280.6462,"EPHEMERIS_TYPE":0,"CLASSIFICATION_TYPE":"U","NORAD_CAT_ID":66021,"ELEMENT_SET_NO":999,"REV_AT_EPOCH":1595,"BSTAR":0.00099271341,"MEAN_MOTION_DOT":0.00029147,"MEAN_MOTION_DDOT":0},{"OBJECT_NAME":"STARLINK-35340","OBJECT_ID":"2025-232T","EPOCH":"2026-01-19T06:53:20.014080","MEAN_MOTION":15.30266351,"ECCENTRICITY":0.00013336,"INCLINATION":53.1584,"RA_OF_ASC_NODE":333.2506,"ARG_OF_PERICENTER":81.4725,"MEAN_ANOMALY":278.6427,"EPHEMERIS_TYPE":0,"CLASSIFICATION_TYPE":"U","NORAD_CAT_ID":66022,"ELEMENT_SET_NO":999,"REV_AT_EPOCH":1587,"BSTAR":0.0012538073,"MEAN_MOTION_DOT":0.00037037,"MEAN_MOTION_DDOT":0},{"OBJECT_NAME":"STARLINK-35394","OBJECT_ID":"2025-232U","EPOCH":"2026-01-19T20:50:43.789632","MEAN_MOTION":15.30214822,"ECCENTRICITY":8.708e-5,"INCLINATION":53.1601,"RA_OF_ASC_NODE":330.481,"ARG_OF_PERICENTER":52.1224,"MEAN_ANOMALY":307.9855,"EPHEMERIS_TYPE":0,"CLASSIFICATION_TYPE":"U","NORAD_CAT_ID":66023,"ELEMENT_SET_NO":999,"REV_AT_EPOCH":1596,"BSTAR":0.001028576,"MEAN_MOTION_DOT":0.00030242,"MEAN_MOTION_DDOT":0},{"OBJECT_NAME":"STARLINK-35410","OBJECT_ID":"2025-232V","EPOCH":"2026-01-19T20:30:58.278816","MEAN_MOTION":15.30211834,"ECCENTRICITY":0.0001647,"INCLINATION":53.1614,"RA_OF_ASC_NODE":330.3933,"ARG_OF_PERICENTER":75.9236,"MEAN_ANOMALY":284.1947,"EPHEMERIS_TYPE":0,"CLASSIFICATION_TYPE":"U","NORAD_CAT_ID":66024,"ELEMENT_SET_NO":999,"REV_AT_EPOCH":1596,"BSTAR":0.000666094,"MEAN_MOTION_DOT":0.00019427,"MEAN_MOTION_DDOT":0},{"OBJECT_NAME":"STARLINK-35280","OBJECT_ID":"2025-232W","EPOCH":"2026-01-19T23:49:43.055616","MEAN_MOTION":15.30194266,"ECCENTRICITY":0.00014277,"INCLINATION":53.1636,"RA_OF_ASC_NODE":329.8333,"ARG_OF_PERICENTER":73.1427,"MEAN_ANOMALY":286.973,"EPHEMERIS_TYPE":0,"CLASSIFICATION_TYPE":"U","NORAD_CAT_ID":66025,"ELEMENT_SET_NO":999,"REV_AT_EPOCH":1598,"BSTAR":0.0011990094,"MEAN_MOTION_DOT":0.00035315,"MEAN_MOTION_DDOT":0},{"OBJECT_NAME":"STARLINK-34812","OBJECT_ID":"2025-232X","EPOCH":"2026-01-19T20:25:03.285408","MEAN_MOTION":15.30212407,"ECCENTRICITY":0.00014015,"INCLINATION":53.1614,"RA_OF_ASC_NODE":331.0769,"ARG_OF_PERICENTER":82.7715,"MEAN_ANOMALY":277.3445,"EPHEMERIS_TYPE":0,"CLASSIFICATION_TYPE":"U","NORAD_CAT_ID":66026,"ELEMENT_SET_NO":999,"REV_AT_EPOCH":1594,"BSTAR":0.0007257134,"MEAN_MOTION_DOT":0.00021204,"MEAN_MOTION_DDOT":0},{"OBJECT_NAME":"STARLINK-35341","OBJECT_ID":"2025-232Y","EPOCH":"2026-01-19T20:22:01.017696","MEAN_MOTION":15.30210995,"ECCENTRICITY":0.00014759,"INCLINATION":53.1611,"RA_OF_ASC_NODE":331.0562,"ARG_OF_PERICENTER":92.9355,"MEAN_ANOMALY":267.1814,"EPHEMERIS_TYPE":0,"CLASSIFICATION_TYPE":"U","NORAD_CAT_ID":66027,"ELEMENT_SET_NO":999,"REV_AT_EPOCH":1595,"BSTAR":0.00079479931,"MEAN_MOTION_DOT":0.00023262,"MEAN_MOTION_DDOT":0},{"OBJECT_NAME":"STARLINK-35339","OBJECT_ID":"2025-232Z","EPOCH":"2026-01-19T20:03:46.784160","MEAN_MOTION":15.30214931,"ECCENTRICITY":0.00019094,"INCLINATION":53.1594,"RA_OF_ASC_NODE":330.98,"ARG_OF_PERICENTER":79.2445,"MEAN_ANOMALY":280.8771,"EPHEMERIS_TYPE":0,"CLASSIFICATION_TYPE":"U","NORAD_CAT_ID":66028,"ELEMENT_SET_NO":999,"REV_AT_EPOCH":1595,"BSTAR":0.00063753398,"MEAN_MOTION_DOT":0.00018579,"MEAN_MOTION_DDOT":0}]
