STARLINK-35307          
1 66013U 25232J   26019.89177592  .00027833  00000+0  94787-3 0  9996
2 66013  53.1597 330.6261 0001531  85.5636 274.5540 15.30215760 15960
STARLINK-35395          
1 66014U 25232K   26019.87805727  .00039239  00000+0  13288-2 0  9992
2 66014  53.1585 330.5429 0001257  93.0074 267.1071 15.30229383 15961
STARLINK-34622          
1 66015U 25232L   26019.83912332  .00026889  00000+0  91626-3 0  9990
2 66015  53.1606 331.0047 0001382  83.3485 276.7673 15.30215180 15947
STARLINK-35243          
1 66016U 25232M   26019.58420328  .00030066  00000+0  10222-2 0  9996
2 66016  53.1616 332.2566 0001510  85.9501 274.1673 15.30229427 15916
STARLINK-35398          
1 66017U 25232N   26019.89494451  .00023780  00000+0  81212-3 0  9992
2 66017  53.1601 330.6465 0001559  88.2089 271.9090 15.30213253 15964
STARLINK-35376          
1 66018U 25232P   26019.58631038  .00020203  00000+0  69224-3 0  9999
2 66018  53.1615 332.2722 0001535  90.7513 269.3664 15.30206406 15913
STARLINK-35382          
1 66019U 25232Q   26019.57364962  .00024905  00000+0  85000-3 0  9991
2 66019  53.1601 332.1933 0002198  77.1380 282.9866 15.30206179 15911
STARLINK-35430          
1 66020U 25232R   26019.88121956  .00030115  00000+0  10240-2 0  9994
2 66020  53.1587 330.5609 0001520 106.4413 253.6755 15.30224818 15944
STARLINK-35432          
1 66021U 25232S   26019.82223682  .00029147  00000+0  99271-3 0  9993
2 66021  53.1588 330.9034 0001510  79.4709 280.6462 15.30188344 15957
STARLINK-35340          
1 66022U 25232T   26019.28703720  .00037037  00000+0  12538-2 0  9997
2 66022  53.1584 333.2506 0001333  81.4725 278.6427 15.30266351 15872
STARLINK-35394          
1 66023U 25232U   26019.86856238  .00030242  00000+0  10286-2 0  9994
2 66023  53.1601 330.4810 0000870  52.1224 307.9855 15.30214822 15961
STARLINK-35410          
1 66024U 25232V   26019.85484119  .00019427  00000+0  66609-3 0  9992
2 66024  53.1614 330.3933 0001647  75.9236 284.1947 15.30211834 15968
STARLINK-35280          
1 66025U 25232W   26019.99285944  .00035315  00000+0  11990-2 0  9999
2 66025  53.1636 329.8333 0001427  73.1427 286.9730 15.30194266 15989
STARLINK-34812          
1 66026U 25232X   26019.85073247  .00021204  00000+0  72571-3 0  9991
2 66026  53.1614 331.0769 0001401  82.7715 277.3445 15.30212407 15943
STARLINK-35341          
1 66027U 25232Y   26019.84862289  .00023262  00000+0  79480-3 0  9995
2 66027  53.1611 331.0562 0001475  92.9355 267.1814 15.30210995 15954
STARLINK-35339          
1 66028U 25232Z   26019.83595815  .00018579  00000+0  63753-3 0  9994
2 66028  53.1594 330.9800 0001909  79.2445 280.8771 15.30214931 15956
